$$SOE
2460147.500000000, A.D. 2023-Jul-22 00:00:00.0000, -1.844042368898066E+09, -6.085284466865178E+09, 6.143120357600119E+08,
2460154.500000000, A.D. 2023-Jul-29 00:00:00.0000, -1.841446043216170E+09, -6.086408822701822E+09, 6.138985460225360E+08,
2460161.500000000, A.D. 2023-Aug-05 00:00:00.0000, -1.838849458402836E+09, -6.087532069607209E+09, 6.134849441635306E+08,
2460168.500000000, A.D. 2023-Aug-12 00:00:00.0000, -1.836252617286863E+09, -6.088654209488937E+09, 6.130712304251525E+08,
2460175.500000000, A.D. 2023-Aug-19 00:00:00.0000, -1.833655522392151E+09, -6.089775244743547E+09, 6.126574050193677E+08,
2460182.500000000, A.D. 2023-Aug-26 00:00:00.0000, -1.831058175936960E+09, -6.090895178166512E+09, 6.122434681340241E+08,
2460189.500000000, A.D. 2023-Sep-02 00:00:00.0000, -1.828460579856161E+09, -6.092014012933559E+09, 6.118294199342761E+08,
2460196.500000000, A.D. 2023-Sep-09 00:00:00.0000, -1.825862735809867E+09, -6.093131752694526E+09, 6.114152605526385E+08,
2460203.500000000, A.D. 2023-Sep-16 00:00:00.0000, -1.823264645010007E+09, -6.094248401837739E+09, 6.110009900475521E+08,
2460210.500000000, A.D. 2023-Sep-23 00:00:00.0000, -1.820666307448446E+09, -6.095363965638172E+09, 6.105866083157759E+08,
2460217.500000000, A.D. 2023-Sep-30 00:00:00.0000, -1.818067720866207E+09, -6.096478449098614E+09, 6.101721150871384E+08,
2460224.500000000, A.D. 2023-Oct-07 00:00:00.0000, -1.815468881817542E+09, -6.097591855026716E+09, 6.097575101733260E+08,
2460231.500000000, A.D. 2023-Oct-14 00:00:00.0000, -1.812869787788943E+09, -6.098704184661068E+09, 6.093427936047297E+08,
2460238.500000000, A.D. 2023-Oct-21 00:00:00.0000, -1.810270437144504E+09, -6.099815439243563E+09, 6.089279654903688E+08,
2460245.500000000, A.D. 2023-Oct-28 00:00:00.0000, -1.807670828321975E+09, -6.100925620277976E+09, 6.085130259164898E+08,
2460252.500000000, A.D. 2023-Nov-04 00:00:00.0000, -1.805070959529556E+09, -6.102034729245096E+09, 6.080979749357710E+08,
2460259.500000000, A.D. 2023-Nov-11 00:00:00.0000, -1.802470828765846E+09, -6.103142767374325E+09, 6.076828125821004E+08,
2460266.500000000, A.D. 2023-Nov-18 00:00:00.0000, -1.799870433943466E+09, -6.104249735536036E+09, 6.072675388857851E+08,
2460273.500000000, A.D. 2023-Nov-25 00:00:00.0000, -1.797269773043522E+09, -6.105355634232132E+09, 6.068521538845880E+08,
2460280.500000000, A.D. 2023-Dec-02 00:00:00.0000, -1.794668844272718E+09, -6.106460463696001E+09, 6.064366576272540E+08,
2460287.500000000, A.D. 2023-Dec-09 00:00:00.0000, -1.792067646145301E+09, -6.107564224160787E+09, 6.060210501577108E+08,
2460294.500000000, A.D. 2023-Dec-16 00:00:00.0000, -1.789466177202290E+09, -6.108666916283390E+09, 6.056053314546061E+08,
2460301.500000000, A.D. 2023-Dec-23 00:00:00.0000, -1.786864435019531E+09, -6.109768541036788E+09, 6.051895013503883E+08,
2460308.500000000, A.D. 2023-Dec-30 00:00:00.0000, -1.784262415844805E+09, -6.110869098021379E+09, 6.047735596384590E+08,
2460315.500000000, A.D. 2024-Jan-06 00:00:00.0000, -1.781660116636439E+09, -6.111968584556102E+09, 6.043575063379085E+08,
2460322.500000000, A.D. 2024-Jan-13 00:00:00.0000, -1.779057536330669E+09, -6.113066997356213E+09, 6.039413416769068E+08,
2460329.500000000, A.D. 2024-Jan-20 00:00:00.0000, -1.776454675114211E+09, -6.114164333713147E+09, 6.035250659343660E+08,
2460336.500000000, A.D. 2024-Jan-27 00:00:00.0000, -1.773851533730757E+09, -6.115260591524280E+09, 6.031086793789980E+08,
2460343.500000000, A.D. 2024-Feb-03 00:00:00.0000, -1.771248113249799E+09, -6.116355769121174E+09, 6.026921822673059E+08,
2460350.500000000, A.D. 2024-Feb-10 00:00:00.0000, -1.768644415020382E+09, -6.117449865187472E+09, 6.022755748510578E+08,
2460357.500000000, A.D. 2024-Feb-17 00:00:00.0000, -1.766040440671114E+09, -6.118542878758473E+09, 6.018588573819981E+08,
2460364.500000000, A.D. 2024-Feb-24 00:00:00.0000, -1.763436192120481E+09, -6.119634809287616E+09, 6.014420301115520E+08,
2460371.500000000, A.D. 2024-Mar-02 00:00:00.0000, -1.760831671568127E+09, -6.120725656812393E+09, 6.010250932800844E+08,
2460378.500000000, A.D. 2024-Mar-09 00:00:00.0000, -1.758226881328285E+09, -6.121815422282560E+09, 6.006080470777462E+08,
2460385.500000000, A.D. 2024-Mar-16 00:00:00.0000, -1.755621823110054E+09, -6.122904107853346E+09, 6.001908915567260E+08,
2460392.500000000, A.D. 2024-Mar-23 00:00:00.0000, -1.753016496848103E+09, -6.123991716034649E+09, 5.997736265949988E+08,
2460399.500000000, A.D. 2024-Mar-30 00:00:00.0000, -1.750410901324953E+09, -6.125078247722999E+09, 5.993562521149323E+08,
2460406.500000000, A.D. 2024-Apr-06 00:00:00.0000, -1.747805036328777E+09, -6.126163702483894E+09, 5.989387682580397E+08,
2460413.500000000, A.D. 2024-Apr-13 00:00:00.0000, -1.745198902795631E+09, -6.127248080248108E+09, 5.985211752585368E+08,
2460420.500000000, A.D. 2024-Apr-20 00:00:00.0000, -1.742592501888216E+09, -6.128331381745279E+09, 5.981034733217649E+08,
2460427.500000000, A.D. 2024-Apr-27 00:00:00.0000, -1.739985834528225E+09, -6.129413608236198E+09, 5.976856626008139E+08,
2460434.500000000, A.D. 2024-May-04 00:00:00.0000, -1.737378901294346E+09, -6.130494761247058E+09, 5.972677432058275E+08,
2460441.500000000, A.D. 2024-May-11 00:00:00.0000, -1.734771702447574E+09, -6.131574842407335E+09, 5.968497152159543E+08,
2460448.500000000, A.D. 2024-May-18 00:00:00.0000, -1.732164238001861E+09, -6.132653853369359E+09, 5.964315786882873E+08,
2460455.500000000, A.D. 2024-May-25 00:00:00.0000, -1.729556507815376E+09, -6.133731795816409E+09, 5.960133336611514E+08,
2460462.500000000, A.D. 2024-Jun-01 00:00:00.0000, -1.726948511642521E+09, -6.134808671616430E+09, 5.955949801417611E+08,
2460469.500000000, A.D. 2024-Jun-08 00:00:00.0000, -1.724340248900362E+09, -6.135884483144017E+09, 5.951765180540347E+08,
2460476.500000000, A.D. 2024-Jun-15 00:00:00.0000, -1.721731717749938E+09, -6.136959233225271E+09, 5.947579471547041E+08,
2460483.500000000, A.D. 2024-Jun-22 00:00:00.0000, -1.719122914497664E+09, -6.138032923530222E+09, 5.943392671062579E+08,
2460490.500000000, A.D. 2024-Jun-29 00:00:00.0000, -1.716513835438471E+09, -6.139105553233333E+09, 5.939204777527554E+08,
2460497.500000000, A.D. 2024-Jul-06 00:00:00.0000, -1.713904478495671E+09, -6.140177120413145E+09, 5.935015791541886E+08,
2460504.500000000, A.D. 2024-Jul-13 00:00:00.0000, -1.711294842708298E+09, -6.141247623366808E+09, 5.930825714315512E+08,
2460511.500000000, A.D. 2024-Jul-20 00:00:00.0000, -1.708684927551574E+09, -6.142317060690787E+09, 5.926634546987121E+08,
2460518.500000000, A.D. 2024-Jul-27 00:00:00.0000, -1.706074732746506E+09, -6.143385431087121E+09, 5.922442290628502E+08,
2460525.500000000, A.D. 2024-Aug-03 00:00:00.0000, -1.703464258285672E+09, -6.144452733270149E+09, 5.918248946377311E+08,
2460532.500000000, A.D. 2024-Aug-10 00:00:00.0000, -1.700853504509426E+09, -6.145518965977897E+09, 5.914054515540874E+08,
2460539.500000000, A.D. 2024-Aug-17 00:00:00.0000, -1.698242472185198E+09, -6.146584128066150E+09, 5.909858999643619E+08,
2460546.500000000, A.D. 2024-Aug-24 00:00:00.0000, -1.695631162562037E+09, -6.147648218707123E+09, 5.905662400371974E+08,
2460553.500000000, A.D. 2024-Aug-31 00:00:00.0000, -1.693019577284799E+09, -6.148711237753771E+09, 5.901464719257777E+08,
2460560.500000000, A.D. 2024-Sep-07 00:00:00.0000, -1.690407717802456E+09, -6.149773186143114E+09, 5.897265956865859E+08,
2460567.500000000, A.D. 2024-Sep-14 00:00:00.0000, -1.687795584185304E+09, -6.150834065342307E+09, 5.893066112218661E+08,
2460574.500000000, A.D. 2024-Sep-21 00:00:00.0000, -1.685183175379878E+09, -6.151893875424691E+09, 5.888865184653971E+08,
2460581.500000000, A.D. 2024-Sep-28 00:00:00.0000, -1.682570491389084E+09, -6.152952615003303E+09, 5.884663175923443E+08,
2460588.500000000, A.D. 2024-Oct-05 00:00:00.0000, -1.679957533707843E+09, -6.154010283019999E+09, 5.880460089165795E+08,
2460595.500000000, A.D. 2024-Oct-12 00:00:00.0000, -1.677344304374859E+09, -6.155066879409991E+09, 5.876255927519913E+08,
2460602.500000000, A.D. 2024-Oct-19 00:00:00.0000, -1.674730805391453E+09, -6.156122404912469E+09, 5.872050693762088E+08,
2460609.500000000, A.D. 2024-Oct-26 00:00:00.0000, -1.672117038539778E+09, -6.157176860828482E+09, 5.867844390341907E+08,
2460616.500000000, A.D. 2024-Nov-02 00:00:00.0000, -1.669503005342998E+09, -6.158230248874276E+09, 5.863637019459524E+08,
2460623.500000000, A.D. 2024-Nov-09 00:00:00.0000, -1.666888707070691E+09, -6.159282571109062E+09, 5.859428583113041E+08,
2460630.500000000, A.D. 2024-Nov-16 00:00:00.0000, -1.664274144763415E+09, -6.160333829936684E+09, 5.855219083092785E+08,
2460637.500000000, A.D. 2024-Nov-23 00:00:00.0000, -1.661659319229358E+09, -6.161384028230797E+09, 5.851008520839472E+08,
2460644.500000000, A.D. 2024-Nov-30 00:00:00.0000, -1.659044230804655E+09, -6.162433169625937E+09, 5.846796896941037E+08,
2460651.500000000, A.D. 2024-Dec-07 00:00:00.0000, -1.656428878457797E+09, -6.163481258553638E+09, 5.842584210228209E+08,
2460658.500000000, A.D. 2024-Dec-14 00:00:00.0000, -1.653813258926698E+09, -6.164528298799492E+09, 5.838370458102021E+08,
2460665.500000000, A.D. 2024-Dec-21 00:00:00.0000, -1.651197368206887E+09, -6.165574291821678E+09, 5.834155639207180E+08,
2460672.500000000, A.D. 2024-Dec-28 00:00:00.0000, -1.648581203418309E+09, -6.166619237798328E+09, 5.829939754219072E+08,
2460679.500000000, A.D. 2025-Jan-04 00:00:00.0000, -1.645964762453443E+09, -6.167663137027396E+09, 5.825722804306099E+08,
2460686.500000000, A.D. 2025-Jan-11 00:00:00.0000, -1.643348043227914E+09, -6.168705990019197E+09, 5.821504790296481E+08,
2460693.500000000, A.D. 2025-Jan-18 00:00:00.0000, -1.640731043450413E+09, -6.169747797200365E+09, 5.817285712642303E+08,
2460700.500000000, A.D. 2025-Jan-25 00:00:00.0000, -1.638113760668291E+09, -6.170788558703773E+09, 5.813065571572282E+08,
2460707.500000000, A.D. 2025-Feb-01 00:00:00.0000, -1.635496192399215E+09, -6.171828274274548E+09, 5.808844367237382E+08,
$$EOE